NORAD_CAT_ID,OBJECT_NAME,OBJECT_TYPE,EPOCH,MEAN_MOTION,ECCENTRICITY,INCLINATION,RA_OF_ASC_NODE,ARG_OF_PERICENTER,MEAN_ANOMALY,BSTAR,MEAN_MOTION_DOT,MEAN_MOTION_DDOT,TLE_LINE0,TLE_LINE1,TLE_LINE2,SEMIMAJOR_AXIS,PERIOD,APOGEE,PERIGEE,DECAYED
53565.0,STARLINK-4575,PAYLOAD,2024-07-06 13:30:55,15.08837957,0.0001416,53.2182,277.7296,91.58,268.5354,-2.1084e-05,-6.23e-06,0.0,0 STARLINK-4575,1 53565U 22101AQ  24188.56314409 -.00000623  00000-0 -21084-4 0  9997,2 53565  53.2182 277.7296 0001416  91.5800 268.5354 15.08837957104845,6917.887,95.438,540.731,538.772,0.0
53565.0,STARLINK-4575,PAYLOAD,2024-07-06 15:06:18,15.08840835,0.0001447,53.2182,277.4315,91.8227,268.2931,-4.8437e-06,-3.65e-06,0.0,0 STARLINK-4575,1 53565U 22101AQ  24188.62938165 -.00000365  00000-0 -48437-5 0  9990,2 53565  53.2182 277.4315 0001447  91.8227 268.2931 15.08840835104852,6917.878,95.438,540.744,538.742,0.0
53565.0,STARLINK-4575,PAYLOAD,2024-07-07 10:10:56,15.08833559,0.0001298,53.2176,273.865,92.2605,267.8536,1.9899e-05,2.9e-07,0.0,0 STARLINK-4575,1 53565U 22101AQ  24189.42426774  .00000029  00000-0  19899-4 0  9991,2 53565  53.2176 273.8650 0001298  92.2605 267.8536 15.08833559104970,6917.9,95.438,540.663,538.867,0.0
53565.0,STARLINK-4575,PAYLOAD,2024-07-08 11:37:06,15.08838143,0.0001162,53.2165,269.1068,88.8381,271.2744,0.00012528,1.706e-05,0.0,0 STARLINK-4575,1 53565U 22101AQ  24190.48410305  .00001706  00000-0  12528-3 0  9996,2 53565  53.2165 269.1068 0001162  88.8381 271.2744 15.08838143104470,6917.886,95.438,540.555,538.947,0.0
53565.0,STARLINK-4575,PAYLOAD,2024-07-09 11:27:53,15.08840656,0.0001192,53.2171,264.6458,94.4034,265.7094,0.00016505,2.34e-05,0.0,0 STARLINK-4575,1 53565U 22101AQ  24191.47770060  .00002340  00000-0  16505-3 0  9997,2 53565  53.2171 264.6458 0001192  94.4034 265.7094 15.08840656105289,6917.878,95.438,540.568,538.919,0.0
53565.0,STARLINK-4575,PAYLOAD,2024-07-10 04:57:08,15.08839679,0.0001344,53.2166,261.3739,96.2513,263.8632,-7.5931e-06,-4.09e-06,0.0,0 STARLINK-4575,1 53565U 22101AQ  24192.20634551 -.00000409  00000-0 -75931-5 0  9999,2 53565  53.2166 261.3739 0001344  96.2513 263.8632 15.08839679104739,6917.881,95.438,540.676,538.817,0.0
53565.0,STARLINK-4575,PAYLOAD,2024-07-10 11:18:40,15.08840104,0.0001328,53.2169,260.184,96.9665,263.1478,-2.098e-05,-6.22e-06,0.0,0 STARLINK-4575,1 53565U 22101AQ  24192.47130482 -.00000622  00000-0 -20980-4 0  9992,2 53565  53.2169 260.1840 0001328  96.9665 263.1478 15.08840104105433,6917.88,95.438,540.664,538.826,0.0
53565.0,STARLINK-4575,PAYLOAD,2024-07-11 11:09:28,15.08835234,0.0001326,53.2173,255.7246,96.7808,263.3335,-1.3502e-05,-5.03e-06,0.0,0 STARLINK-4575,1 53565U 22101AQ  24193.46490922 -.00000503  00000-0 -13502-4 0  9990,2 53565  53.2173 255.7246 0001326  96.7808 263.3335 15.08835234105581,6917.895,95.438,540.677,538.843,0.0
53565.0,STARLINK-4575,PAYLOAD,2024-07-11 20:41:46,15.08835324,0.0001277,53.2168,253.94,95.3291,264.7847,1.4201e-05,-6.2e-07,0.0,0 STARLINK-4575,1 53565U 22101AQ  24193.86234946 -.00000062  00000-0  14201-4 0  9992,2 53565  53.2168 253.9400 0001277  95.3291 264.7847 15.08835324104989,6917.895,95.438,540.643,538.876,0.0
53565.0,STARLINK-4575,PAYLOAD,2024-07-12 11:00:14,15.08838756,0.0001294,53.2169,251.2658,96.2139,263.9001,9.856e-05,1.281e-05,0.0,0 STARLINK-4575,1 53565U 22101AQ  24194.45850692  .00001281  00000-0  98560-4 0  9993,2 53565  53.2169 251.2658 0001294  96.2139 263.9001 15.08838756105735,6917.884,95.438,540.644,538.854,0.0
53565.0,STARLINK-4575,PAYLOAD,2024-07-12 20:32:34,15.08836284,0.0001252,53.2166,249.4819,93.7157,266.3978,8.7776e-05,1.109e-05,0.0,0 STARLINK-4575,1 53565U 22101AQ  24194.85594994  .00001109  00000-0  87776-4 0  9993,2 53565  53.2166 249.4819 0001252  93.7157 266.3978 15.08836284105796,6917.892,95.438,540.623,538.891,0.0
53565.0,STARLINK-4575,PAYLOAD,2024-07-13 02:54:06,15.08838211,0.0001243,53.2164,248.292,88.3934,271.72,8.7327e-05,1.102e-05,0.0,0 STARLINK-4575,1 53565U 22101AQ  24195.12090959  .00001102  00000-0  87327-4 0  9991,2 53565  53.2164 248.2920 0001243  88.3934 271.7200 15.08838211105179,6917.886,95.438,540.611,538.891,0.0
53565.0,STARLINK-4575,PAYLOAD,2024-07-13 12:26:25,15.08842535,0.0001295,53.2167,246.5077,89.088,271.026,0.00011712,1.577e-05,0.0,0 STARLINK-4575,1 53565U 22101AQ  24195.51834710  .00001577  00000-0  11712-3 0  9995,2 53565  53.2167 246.5077 0001295  89.0880 271.0260 15.08842535105893,6917.873,95.437,540.634,538.842,0.0
53565.0,STARLINK-4575,PAYLOAD,2024-07-13 20:23:21,15.088402,0.0001329,53.2168,245.0208,84.7218,275.3926,8.6152e-05,1.083e-05,0.0,0 STARLINK-4575,1 53565U 22101AQ  24195.84955006  .00001083  00000-0  86152-4 0  9996,2 53565  53.2168 245.0208 0001329  84.7218 275.3926 15.08840200105948,6917.88,95.438,540.664,538.825,0.0
53565.0,STARLINK-4575,PAYLOAD,2024-07-14 10:41:49,15.08841026,0.0001488,53.2169,242.3443,90.3318,269.7845,5.4831e-06,-2.01e-06,0.0,0 STARLINK-4575,1 53565U 22101AQ  24196.44571229 -.00000201  00000-0  54831-5 0  9996,2 53565  53.2169 242.3443 0001488  90.3318 269.7845 15.08841026105371,6917.877,95.437,540.772,538.713,0.0
53565.0,STARLINK-4575,PAYLOAD,2024-07-14 20:14:08,15.08847146,0.0001508,53.2173,240.5596,82.5146,277.6017,-4.6032e-05,-1.021e-05,0.0,0 STARLINK-4575,1 53565U 22101AQ  24196.84314951 -.00001021  00000-0 -46032-4 0  9992,2 53565  53.2173 240.5596 0001508  82.5146 277.6017 15.08847146106098,6917.859,95.437,540.767,538.68,0.0
53565.0,STARLINK-4575,PAYLOAD,2024-07-15 10:32:36,15.08844667,0.0001324,53.2161,237.8831,82.3082,277.8061,4.6477e-05,4.52e-06,0.0,0 STARLINK-4575,1 53565U 22101AQ  24197.43930811  .00000452  00000-0  46477-4 0  9995,2 53565  53.2161 237.8831 0001324  82.3082 277.8061 15.08844667106185,6917.866,95.437,540.647,538.815,0.0
53565.0,STARLINK-4575,PAYLOAD,2024-07-15 20:04:55,15.08843783,0.0001283,53.2159,236.0995,82.1465,277.9673,2.2267e-05,6.7e-07,0.0,0 STARLINK-4575,1 53565U 22101AQ  24197.83674810  .00000067  00000-0  22267-4 0  9996,2 53565  53.2159 236.0995 0001283  82.1465 277.9673 15.08843783105582,6917.869,95.437,540.621,538.846,0.0
53565.0,STARLINK-4575,PAYLOAD,2024-07-16 07:12:37,15.08837613,0.0001319,53.2159,234.0175,81.5239,278.5902,5.7193e-05,6.22e-06,0.0,0 STARLINK-4575,1 53565U 22101AQ  24198.30043115  .00000622  00000-0  57193-4 0  9990,2 53565  53.2159 234.0175 0001319  81.5239 278.5902 15.08837613106311,6917.888,95.438,540.665,538.84,0.0
53565.0,STARLINK-4575,PAYLOAD,2024-07-17 11:49:33,15.08844576,0.0001339,53.2154,228.6634,84.9695,275.145,5.4142e-05,5.74e-06,0.0,0 STARLINK-4575,1 53565U 22101AQ  24199.49274710  .00000574  00000-0  54142-4 0  9995,2 53565  53.2154 228.6634 0001339  84.9695 275.1450 15.08844576105833,6917.866,95.437,540.658,538.805,0.0
53565.0,STARLINK-4575,PAYLOAD,2024-07-18 11:40:20,15.08845769,0.0001401,53.2155,224.2014,85.4681,274.6471,-0.00012426,-2.265e-05,0.0,0 STARLINK-4575,1 53565U 22101AQ  24200.48635325 -.00002265  00000-0 -12426-3 0  9999,2 53565  53.2155 224.2014 0001401  85.4681 274.6471 15.08845769106641,6917.863,95.437,540.697,538.759,0.0
53565.0,STARLINK-4575,PAYLOAD,2024-07-19 08:20:21,15.08838143,0.0001315,53.2158,220.3371,84.5719,275.5423,5.3444e-05,5.63e-06,0.0,0 STARLINK-4575,1 53565U 22101AQ  24201.34747463  .00000563  00000-0  53444-4 0  9995,2 53565  53.2158 220.3371 0001315  84.5719 275.5423 15.08838143106110,6917.886,95.438,540.661,538.841,0.0
53565.0,STARLINK-4575,PAYLOAD,2024-07-19 17:52:40,15.08837241,0.0001293,53.2153,218.5525,82.9846,277.1293,6.3853e-05,7.28e-06,0.0,0 STARLINK-4575,1 53565U 22101AQ  24201.74491483  .00000728  00000-0  63853-4 0  9995,2 53565  53.2153 218.5525 0001293  82.9846 277.1293 15.08837241106833,6917.889,95.438,540.648,538.859,0.0
53565.0,STARLINK-4575,PAYLOAD,2024-07-20 08:11:08,15.08839459,0.0001332,53.2158,215.877,85.5439,274.5705,8.2584e-05,1.027e-05,0.0,0 STARLINK-4575,1 53565U 22101AQ  24202.34107427  .00001027  00000-0  82584-4 0  9999,2 53565  53.2158 215.8770 0001332  85.5439 274.5705 15.08839459106923,6917.882,95.438,540.669,538.826,0.0
53565.0,STARLINK-4575,PAYLOAD,2024-07-20 17:43:27,15.08840297,0.0001337,53.2159,214.0929,85.2136,274.9009,8.0715e-05,9.97e-06,0.0,0 STARLINK-4575,1 53565U 22101AQ  24202.73851437  .00000997  00000-0  80715-4 0  9998,2 53565  53.2159 214.0929 0001337  85.2136 274.9009 15.08840297106324,6917.879,95.438,540.669,538.82,0.0
53565.0,STARLINK-4575,PAYLOAD,2024-07-21 08:01:56,15.08839338,0.0001364,53.216,211.4169,86.9759,273.1389,4.4099e-05,4.14e-06,0.0,0 STARLINK-4575,1 53565U 22101AQ  24203.33467681  .00000414  00000-0  44099-4 0  9998,2 53565  53.2160 211.4169 0001364  86.9759 273.1389 15.08839338107071,6917.882,95.438,540.691,538.804,0.0
53565.0,STARLINK-4575,PAYLOAD,2024-07-22 04:41:57,15.08836859,0.0001404,53.2164,207.5512,88.2748,271.8405,1.2111e-05,-9.5e-07,0.0,0 STARLINK-4575,1 53565U 22101AQ  24204.19580065 -.00000095  00000-0  12111-4 0  9991,2 53565  53.2164 207.5512 0001404  88.2748 271.8405 15.08836859106541,6917.89,95.438,540.726,538.784,0.0
53565.0,STARLINK-4575,PAYLOAD,2024-07-22 09:28:06,15.08839081,0.0001405,53.2162,206.6589,86.529,273.5863,1.4326e-05,-6e-07,0.0,0 STARLINK-4575,1 53565U 22101AQ  24204.39451931 -.00000060  00000-0  14326-4 0  9994,2 53565  53.2162 206.6589 0001405  86.5290 273.5863 15.08839081107231,6917.883,95.438,540.72,538.776,0.0
53565.0,STARLINK-4575,PAYLOAD,2024-07-23 09:18:52,15.08844897,0.0001385,53.2158,202.1975,91.0287,269.0864,9.3094e-05,1.194e-05,0.0,0 STARLINK-4575,1 53565U 22101AQ  24205.38811332  .00001194  00000-0  93094-4 0  9996,2 53565  53.2158 202.1975 0001385  91.0287 269.0864 15.08844897106725,6917.865,95.437,540.689,538.772,0.0
53565.0,STARLINK-4575,PAYLOAD,2024-07-24 04:23:31,15.0883732,0.0001316,53.2157,198.6286,92.2973,267.817,2.8961e-05,1.73e-06,0.0,0 STARLINK-4575,1 53565U 22101AQ  24206.18300088  .00000173  00000-0  28961-4 0  9993,2 53565  53.2157 198.6286 0001316  92.2973 267.8170 15.08837320106849,6917.889,95.438,540.664,538.843,0.0
